STARLINK-32290          
1 60359U 24138E   26068.89009837  .00004912  00000+0  17799-3 0  9998
2 60359  53.1597 309.0077 0000484 123.8936 236.2111 15.30174129 71680
TEVEL2-4                
1 63213U 25052D   26068.69417974  .00020990  00000+0  70363-3 0  9999
2 63213  97.4009 325.1237 0004733  95.3468 264.8313 15.30925813 54879
